KUIPER-00079            
1 64826U 25151L   25220.04110382  .00019038  00000+0  54241-3 0  9999
2 64826  51.8773 177.7539 0005854 211.8107 148.2526 15.36098487  4698
KUIPER-00080            
1 64827U 25151M   25220.50084802  .00022521  00000+0  64516-3 0  9995
2 64827  51.8779 175.5879 0004857 223.2064 136.8541 15.35820764  3564
KUIPER-00082            
1 64828U 25151N   25220.49926986  .00021949  00000+0  62705-3 0  9993
2 64828  51.8774 175.5722 0005287 218.8350 141.2257 15.35920481  3564
KUIPER-00083            
1 64829U 25151P   25220.37492599 -.00203849  00000+0 -60239-2 0  9991
2 64829  51.8771 176.2362 0007629 221.0430 138.9982 15.35163761  4735
KUIPER-00084            
1 64830U 25151Q   25220.50002315 -.00982520  00000+0 -40162-1 0  9993
2 64830  51.8828 176.0541 0007007 234.2076 242.6113 15.26499140  3550
KUIPER-00085            
1 64831U 25151R   25220.49727393  .00022114  00000+0  62979-3 0  9996
2 64831  51.8777 175.5611 0005850 216.0988 143.9604 15.36011934  3561
KUIPER-00086            
1 64832U 25151S   25220.50721015  .00020773  00000+0  60489-3 0  9997
2 64832  51.8773 175.6234 0005300 238.9869 121.0597 15.35356703  3553
KUIPER-00087            
1 64833U 25151T   25220.50067120  .00022662  00000+0  65016-3 0  9998
2 64833  51.8776 175.5853 0005243 214.5970 145.4676 15.35769118  3569
